{
    "links": {
        "self": "http://www.neowsapp.com/rest/v1/neo/3589299?api_key=iIulBulltgU6a56xZRHN4H3l9WmuAYTsLGpBGhQ2"
    },
    "id": "3589299",
    "neo_reference_id": "3589299",
    "name": "(2011 WO46)",
    "designation": "2011 WO46",
    "nasa_jpl_url": "http://ssd.jpl.nasa.gov/sbdb.cgi?sstr=3589299",
    "absolute_magnitude_h": 24.9,
    "estimated_diameter": {
        "kilometers": {
            "estimated_diameter_min": 0.0278326768,
            "estimated_diameter_max": 0.0622357573
        },
        "meters": {
            "estimated_diameter_min": 27.8326768072,
            "estimated_diameter_max": 62.2357573367
        },
        "miles": {
            "estimated_diameter_min": 0.0172944182,
            "estimated_diameter_max": 0.0386714948
        },
        "feet": {
            "estimated_diameter_min": 91.3145593761,
            "estimated_diameter_max": 204.1855621004
        }
    },
    "is_potentially_hazardous_asteroid": false,
    "close_approach_data": [
        {
            "close_approach_date": "2011-06-27",
            "close_approach_date_full": "2011-Jun-27 11:25",
            "epoch_date_close_approach": 1309173900000,
            "relative_velocity": {
                "kilometers_per_second": "3.9013302218",
                "kilometers_per_hour": "14044.7887983462",
                "miles_per_hour": "8726.8855730613"
            },
            "miss_distance": {
                "astronomical": "0.4590169494",
                "lunar": "178.5575933166",
                "kilometers": "68667957.924137778",
                "miles": "42668290.4991382164"
            },
            "orbiting_body": "Earth"
        },
        {
            "close_approach_date": "2011-11-06",
            "close_approach_date_full": "2011-Nov-06 06:57",
            "epoch_date_close_approach": 1320562620000,
            "relative_velocity": {
                "kilometers_per_second": "9.7537268607",
                "kilometers_per_hour": "35113.4166985729",
                "miles_per_hour": "21818.1116147327"
            },
            "miss_distance": {
                "astronomical": "0.0344379694",
                "lunar": "13.3963700966",
                "kilometers": "5151846.869365178",
                "miles": "3201209.2025803364"
            },
            "orbiting_body": "Earth"
        },
        {
            "close_approach_date": "2013-07-04",
            "close_approach_date_full": "2013-Jul-04 11:21",
            "epoch_date_close_approach": 1372936860000,
            "relative_velocity": {
                "kilometers_per_second": "16.5243295392",
                "kilometers_per_hour": "59487.5863412212",
                "miles_per_hour": "36963.2727462993"
            },
            "miss_distance": {
                "astronomical": "0.2488206031",
                "lunar": "96.7912146059",
                "kilometers": "37223032.235875397",
                "miles": "23129319.7105665986"
            },
            "orbiting_body": "Earth"
        }
    ],
    "orbital_data": {
        "orbit_id": "5",
        "orbit_determination_date": "2019-07-16 06:14:45",
        "first_observation_date": "2011-11-26",
        "last_observation_date": "2011-12-01",
        "data_arc_in_days": 5,
        "observations_used": 29,
        "orbit_uncertainty": "8",
        "minimum_orbit_intersection": ".0320235",
        "jupiter_tisserand_invariant": "4.387",
        "epoch_osculation": "2455894.5",
        "eccentricity": ".4100296857535249",
        "semi_major_axis": "1.53053664963434",
        "inclination": "3.588970391904352",
        "ascending_node_longitude": "72.0530289790712",
        "orbital_period": "691.6144000794959",
        "perihelion_distance": ".9029711881505186",
        "perihelion_argument": "281.9366086407319",
        "aphelion_distance": "2.15810211111816",
        "perihelion_time": "2455833.500162816986",
        "mean_anomaly": "31.75171220171372",
        "mean_motion": ".5205212614986338",
        "equinox": "J2000",
        "orbit_class": {
            "orbit_class_type": "APO",
            "orbit_class_description": "Near-Earth asteroid orbits which cross the Earth’s orbit similar to that of 1862 Apollo",
            "orbit_class_range": "a (semi-major axis) > 1.0 AU; q (perihelion) < 1.017 AU"
        }
    },
    "is_sentry_object": false
}